ION SCV-008             
1 55051U 23001AU  26068.82429008  .00008336  00000+0  31423-3 0  9992
2 55051  97.5676 163.6060 0015192   8.5420 351.6074 15.27226640176169
STARLINK-35910          
1 67184U 25303X   26068.06052621  .00039330  00000+0  14301-2 0  9991
2 67184  42.9961 313.8596 0000184  24.3355 335.7505 15.27604781 12641
